{
    "links": {
        "self": "http://www.neowsapp.com/rest/v1/neo/3873327?api_key=iIulBulltgU6a56xZRHN4H3l9WmuAYTsLGpBGhQ2"
    },
    "id": "3873327",
    "neo_reference_id": "3873327",
    "name": "(2019 SV10)",
    "designation": "2019 SV10",
    "nasa_jpl_url": "http://ssd.jpl.nasa.gov/sbdb.cgi?sstr=3873327",
    "absolute_magnitude_h": 23.8,
    "estimated_diameter": {
        "kilometers": {
            "estimated_diameter_min": 0.046190746,
            "estimated_diameter_max": 0.1032856481
        },
        "meters": {
            "estimated_diameter_min": 46.1907460282,
            "estimated_diameter_max": 103.2856480504
        },
        "miles": {
            "estimated_diameter_min": 0.0287015901,
            "estimated_diameter_max": 0.0641787064
        },
        "feet": {
            "estimated_diameter_min": 151.544447199,
            "estimated_diameter_max": 338.8636855496
        }
    },
    "is_potentially_hazardous_asteroid": false,
    "close_approach_data": [
        {
            "close_approach_date": "2019-10-03",
            "close_approach_date_full": "2019-Oct-03 05:50",
            "epoch_date_close_approach": 1570081800000,
            "relative_velocity": {
                "kilometers_per_second": "11.9281473759",
                "kilometers_per_hour": "42941.3305532746",
                "miles_per_hour": "26682.0728651722"
            },
            "miss_distance": {
                "astronomical": "0.1207141758",
                "lunar": "46.9578143862",
                "kilometers": "18058583.578485546",
                "miles": "11221083.5071146948"
            },
            "orbiting_body": "Earth"
        }
    ],
    "orbital_data": {
        "orbit_id": "2",
        "orbit_determination_date": "2019-10-12 06:37:12",
        "first_observation_date": "2019-09-30",
        "last_observation_date": "2019-10-04",
        "data_arc_in_days": 4,
        "observations_used": 12,
        "orbit_uncertainty": "9",
        "minimum_orbit_intersection": ".112489",
        "jupiter_tisserand_invariant": "4.730",
        "epoch_osculation": "2458757.5",
        "eccentricity": ".2169801112578217",
        "semi_major_axis": "1.369977373953861",
        "inclination": "21.48302882294174",
        "ascending_node_longitude": "185.953943679158",
        "orbital_period": "585.6909571295635",
        "perihelion_distance": "1.072719530932654",
        "perihelion_argument": "219.7399538927054",
        "aphelion_distance": "1.667235216975069",
        "perihelion_time": "2458794.618547974602",
        "mean_anomaly": "337.1847642375317",
        "mean_motion": ".6146586277588074",
        "equinox": "J2000",
        "orbit_class": {
            "orbit_class_type": "AMO",
            "orbit_class_description": "Near-Earth asteroid orbits similar to that of 1221 Amor",
            "orbit_class_range": "1.017 AU < q (perihelion) < 1.3 AU"
        }
    },
    "is_sentry_object": false
}